#cP2021  3 23  0  0  0.00000000      96 ORBIT IGb14 HLM  IGS
## 2150 172800.00000000   900.00000000 59296 0.0000000000000
+   32   G01G02G03G04G05G06G07G08G09G10G11G12G13G14G15G16G17
+        G18G19G20G21G22G23G24G25G26G27G28G29G30G31G32  0  0
+          0  0  0  0  0  0  0  0  0  0  0  0  0  0  0  0  0
+          0  0  0  0  0  0  0  0  0  0  0  0  0  0  0  0  0
+          0  0  0  0  0  0  0  0  0  0  0  0  0  0  0  0  0
++         1  2  2  2  2  2  2  2  2  2  3  2  2  2  2  2  2
++         2  2  2  2  2  2  2  1  2  2  1  2  2  1  2  0  0
++         0  0  0  0  0  0  0  0  0  0  0  0  0  0  0  0  0
++         0  0  0  0  0  0  0  0  0  0  0  0  0  0  0  0  0
++         0  0  0  0  0  0  0  0  0  0  0  0  0  0  0  0  0
%c G  cc GPS ccc cccc cccc cccc cccc ccccc ccccc ccccc ccccc
%c cc cc ccc ccc cccc cccc cccc cccc ccccc ccccc ccccc ccccc
%f  1.2500000  1.025000000  0.00000000000  0.000000000000000
%f  0.0000000  0.000000000  0.00000000000  0.000000000000000
%i    0    0    0    0      0      0      0      0         0
%i    0    0    0    0      0      0      0      0         0
/* FINAL ORBIT COMBINATION FROM WEIGHTED AVERAGE OF:        
/* cod emr esa gfz grg jpl mit ngs sio                      
/* REFERENCED TO IGS TIME (IGST) AND TO WEIGHTED MEAN POLE: 
/* PCV:IGS14_2148 OL/AL:FES2004  NONE     Y  ORB:CMB CLK:CMB
*  2021  3 23  9  0  0.00000000
PG01 -13276.534417  10978.500143  19862.616465    734.602252  5  5  2  90       
PG02  13264.988503  14225.955644 -17411.632050   -588.847483  5  7  1  93       
PG03 -23111.864615  12945.809656    633.417984   -115.973243  4  5  3  86       
PG04 -19112.454119   3142.377768 -18193.458756   -187.850112  6  6  6  72       
PG05  21407.574711   -140.764885 -15991.418171    -37.033715  4  4  4  92       
PG06   6242.816001  24041.754827  -9261.839107      2.356929  3  5  2  79       
PG07  -7301.697788  23031.497127 -10103.055952     98.955704  5  4  4  73       
PG08 -23409.497255  -3091.881636  12455.365076    -14.819256  5  5  6  85       
PG09  -9356.904656  12365.740197 -21621.284839   -333.377282  5  5  5  71       
PG10   1445.540208 -17064.203559  20343.711124    -86.861847  7  4  1  85       
PG11 -14972.640668   5796.640388  20699.268100      8.941920  8  6  5 100       
PG12  24499.900144  -9258.083264   3641.598125    -17.891195  5  7  5  53       
PG13  22755.308360  12697.713956   5346.545157    111.099012  6  5  3  71       
PG14  -3516.687316  17467.615189  19680.554435     99.498821  4  4  2  44       
PG15  23703.150380    452.673677  11964.565794   -161.256836  8  6  2 102       
PG16 -19758.474698  -4075.856480 -17755.252471   -298.344255  5  5  3  82       
PG17   7682.153748  18910.954720  17421.459276    414.285526  5  5  5  71       
PG18   5438.210768 -24939.441024  -7237.777978    351.012325  7  6  6  80       
PG19  15135.676162  19256.747456  10111.358391    -22.692148  6  7  5  64       
PG20  14891.966530 -19972.616898   8695.743655    523.890277  3  3  3  77       
PG21 -15503.857567   2251.879867  22161.253133    105.311425  6  4  5  46       
PG22 -23340.247264   7589.866832  10115.102279   -654.452040  3  4  4  72       
PG23  12594.631552 -18938.563306  13661.878721    116.676950  4  3  4  82       
PG24  15107.211418  -5166.717403  20939.461953      0.683662  3  5  4  90       
PG25  17957.005755 -17472.578108  -8643.500145    104.289543  6  6  5  78       
PG26 -11786.783891 -10818.703139 -21285.197994     61.960241     6  2  74       
PG27 -23608.418046 -12528.989363   1247.933678    -99.265250  8  7  6  70       
PG28  -1309.089674  16580.857849  21307.155284    597.935614  4  3  2  38       
PG29   9346.215120 -11420.544992 -22128.662643   -316.952259  8  4  6  66       
PG30    788.283971  26359.671864   1889.059078   -402.498867  3  4  3  63       
PG31  -7895.801661 -22204.948481 -11859.537757   -107.287673  4  4  5  96       
PG32 -10423.102113 -18716.539728  15911.638698     21.568167  7  6  8  95       
*  2021  3 23  9 15  0.00000000
PG01 -13430.465834   8594.675800  20923.442120    734.594132  4  4  3  85       
PG02  13306.346150  16237.010635 -15590.003285   -588.850783  5  7  1  92       
PG03 -23032.069589  12610.586404   3497.919442   -115.982901  3  5  3  85       
PG04 -20757.252198   2025.185263 -16473.767261   -187.852004  6  6  7  53       
PG05  19922.217532   1055.806651 -17776.613009    -37.035050  4  4  4  74       
PG06   6091.539697  24959.702229  -6552.265459      2.358900  4  4  3  76       
PG07  -7619.688402  21679.887394 -12535.404735     98.966919  5  4  4  78       
PG08 -24464.099250  -3830.749155  10007.185942    -14.820359  6  5  6  78       
PG09 -11514.193228  11224.939515 -21199.176944   -333.379994  5  5  5  75       
PG10   3399.044306 -18164.953085  19089.942409    -86.868946  7  4  2  97       
PG11 -16133.679616   3628.467925  20291.706620      8.951656  9  6  6 108       
PG12  24068.894513  -8773.006476   6454.718611    -17.895754  5  7  5  56       
PG13  23004.952616  13146.782765   2529.876949    111.102921  7  5  2  87       
PG14  -5474.838207  18427.943214  18309.112300     99.498146  3  4     44       
PG15  24788.446576   1178.936885   9578.939357   -161.254284  8  5  2  82       
PG16 -17964.435142  -5087.087031 -19311.374957   -298.349271  5  5  3  75       
PG17   5916.755486  17952.605542  19086.051243    414.291277  4  4  5  62       
PG18   5674.836423 -23963.295097  -9879.550101    351.012914  7  5  5  88       
PG19  13936.134385  18653.356905  12585.169668    -22.687499  6  6  5  53       
PG20  15757.114222 -20278.531683   6045.100080    523.890309  3  3  4  79       
PG21 -15777.595280   -112.225808  22120.495663    105.313933  6  4  5  74       
PG22 -22504.549541   6579.958355  12499.586023   -654.444456  3  4  3  83       
PG23  13903.140636 -19558.856885  11318.136780    116.675835  4  3  4  87       
PG24  15414.210838  -2710.695062  21208.671775      0.682725  4  5  5  90       
PG25  18777.771350 -17687.525851  -5936.291914    104.296227  5  6  5  65       
PG26  -9783.402358 -12214.992239 -21520.143505     61.965067     6  2  71       
PG27 -23520.995099 -12688.267527  -1617.086420    -99.271645  8  7  5  66       
PG28  -3353.957250  17542.255444  20277.273355    597.930606  3  3  2  51       
PG29  11451.860459 -10079.141834 -21791.057033   -316.958352  8  3  6  75       
PG30    448.319309  26413.083776   -931.397954   -402.503780  4  5  3  68       
PG31  -7645.854068 -23426.221391  -9356.043034   -107.289335  4  3  5  70       
PG32  -8664.793458 -17977.248180  17712.662869     21.568590  7  6  8  89       
*  2021  3 23  9 30  0.00000000
PG01 -13723.068464   6124.775776  21613.765708    734.586170  4  4  4  83       
PG02  13413.723868  18015.030869 -13487.221043   -588.854097  4  6  2  98       
PG03 -22707.951965  12084.037777   6301.734953   -115.992536  3  5  3  86       
PG04 -22269.325958   1089.356400 -14471.121488   -187.853932  6  7  6  86       
PG05  18355.069364   2439.674520 -19261.380011    -37.035904  4  4  4  81       
PG06   5961.475035  25571.188216  -3729.332447      2.360887  4  4  3  88       
PG07  -8027.361257  20079.048869 -14742.414161     98.977911  4  5  4  88       
PG08 -25295.127066  -4397.248831   7389.602901    -14.820777  6  5  6  65       
PG09 -13664.530569  10223.195280 -20414.250405   -333.382718  5  6  5  86       
PG10   5163.310721 -19275.559221  17508.036350    -86.876032  6  4  2  82       
PG11 -17351.787494   1566.996671  19519.460430      8.961485  9  7  6 102       
PG12  23396.124177  -8099.524313   9154.930282    -17.900604  4  7  5  81       
PG13  23006.518214  13410.796871   -330.072536    111.107180  7  5  2  63       
PG14  -7235.476395  19394.021514  16622.167914     99.497403  3  5     41       
PG15  25641.303743   1762.700494   7029.168385   -161.252340  8  5  2  88       
PG16 -16093.080795  -6276.358122 -20546.204026   -298.354599  6  5  3  88       
PG17   3953.799051  17017.518893  20433.151324    414.297045  4  3  5  69       
PG18   5984.197511 -22711.968484 -12350.787031    351.013461  6  4  5  62       
PG19  12470.051044  17980.621249  14840.099355    -22.683198  4  6  5  70       
PG20  16384.051417 -20413.217415   3288.304459    523.889236  3  3  4  85       
PG21 -16173.067953  -2431.050310  21724.147078    105.316617  5  4  5  61       
PG22 -21524.513339   5365.752312  14669.218931   -654.437124  4  4  3  69       
PG23  14956.083040 -20080.395316   8778.982763    116.674709  4  2  4  84       
PG24  15837.894474   -266.545851  21104.518687      0.682331  5  6  4  90       
PG25  19333.459593 -17761.143935  -3125.904780    104.302875  5  6  4  72       
PG26  -7844.768078 -13713.618650 -21386.826478     61.969869     5  2  87       
PG27 -23151.504348 -12718.698707  -4454.946405    -99.278028  9  8  5  85       
PG28  -5228.963516  18549.697451  18915.988857    597.925510  3  4  2  56       
PG29  13576.941388  -8886.304178 -21080.199903   -316.964359  7  3  6  71       
PG30     89.607437  26164.299482  -3735.587226   -402.508677  4  6  3  78       
PG31  -7436.020511 -24365.496955  -6687.832604   -107.291706  3  3  5  77       
PG32  -6700.438027 -17254.482934  19213.066725     21.569039  7  5  8  87       
EOF
